LEMUR-2-FINNIAN         
1 66782U 25276DX  26156.00847169  .00008271  00000+0  66508-3 0  9991
2 66782  97.5250 227.3906 0008301 125.9633 234.2362 15.00218347 18179
LEMUR-2-STARLIGHT       
1 66783U 25276DY  26156.02081897  .00007699  00000+0  63984-3 0  9990
2 66783  97.5270 227.0739 0015199 163.3797 196.7928 14.98907454 28376
LEMUR-2-TARTIFLETTE     
1 66784U 25276DZ  26155.75248360  .00008954  00000+0  74334-3 0  9996
2 66784  97.5271 226.8199 0013799 170.4246 189.7243 14.98918843 28339
LEMUR-2-VUKASIN         
1 66785U 25276EA  26155.69017764  .00007442  00000+0  59914-3 0  9990
2 66785  97.5301 227.0271 0006172 153.9610 206.1925 15.00218565 28278
LEMUR-2-HOTSPUR-TOM     
1 66786U 25276EB  26156.01110558  .00008454  00000+0  70400-3 0  9990
2 66786  97.5240 227.0560 0015058 165.6469 194.5185 14.98800296 28303
LEMUR-2-MYRA            
1 66787U 25276EC  26155.72048527  .00007405  00000+0  59737-3 0  9999
2 66787  97.5221 227.0119 0014975 183.0269 177.0867 15.00071955 28345
LEMUR-2 FIKRETDENGIZ    
1 67363U 26004A   26154.55319882  .00004718  00000+0  51674-3 0  9991
2 67363  97.8015 153.3224 0008838 173.3369 186.7966 14.88221873 21253
TWILIGHT-1 OBJECT B     
1 67364U 26004B   26155.98467742  .00002056  00000+0  23174-3 0  9996
2 67364  97.8059 154.7515 0009071 160.2127 199.9443 14.87659026 21471
LEMUR-2-MARIO-SOUSA     
1 67365U 26004C   26155.21077290  .00005625  00000+0  61210-3 0  9996
2 67365  97.7991 153.9664 0008476 171.6156 188.5204 14.88405946 21366
LEMUR-2-SONNENBLUME     
1 67367U 26004E   26155.00589839  .00003453  00000+0  37968-3 0  9992
2 67367  97.7983 153.7541 0007988 174.6572 185.4731 14.88244849 21334
LEMUR-2-WOBLER          
1 67368U 26004F   26155.00106295  .00004646  00000+0  50648-3 0  9999
2 67368  97.8037 153.8581 0008529 163.6845 196.4648 14.88419567 21334
LEMUR-2-GRAM-E-SUE      
1 67370U 26004H   26155.99985199  .00003313  00000+0  36298-3 0  9993
2 67370  97.7972 154.7462 0007130 171.5895 188.5442 14.88415856 21489
LEMUR-2-KATIE           
1 67387U 26004AA  26155.99991838  .00005498  00000+0  57622-3 0  9998
2 67387  97.8036 155.1663 0004502 117.8952 242.2722 14.89957742 21490
LEMUR-2-HCS-BAZUS       
1 67388U 26004AB  26155.99901568  .00006092  00000+0  63793-3 0  9997
2 67388  97.8020 155.1480 0004204 114.2020 245.9637 14.89950611 21490
