OBJECT_NAME,OBJECT_ID,EPOCH,MEAN_MOTION,ECCENTRICITY,INCLINATION,RA_OF_ASC_NODE,ARG_OF_PERICENTER,MEAN_ANOMALY,EPHEMERIS_TYPE,CLASSIFICATION_TYPE,NORAD_CAT_ID,ELEMENT_SET_NO,REV_AT_EPOCH,BSTAR,MEAN_MOTION_DOT,MEAN_MOTION_DDOT
LEMUR-2-FINNIAN,2025-276DX,2026-06-05T00:12:11.954016,15.00218347,.0008301,97.5250,227.3906,125.9633,234.2362,0,U,66782,999,1817,.66508E-3,.8271E-4,0
LEMUR-2-STARLIGHT,2025-276DY,2026-06-05T00:29:58.759008,14.98907454,.0015199,97.5270,227.0739,163.3797,196.7928,0,U,66783,999,2837,.63984E-3,.7699E-4,0
LEMUR-2-TARTIFLETTE,2025-276DZ,2026-06-04T18:03:34.583040,14.98918843,.0013799,97.5271,226.8199,170.4246,189.7243,0,U,66784,999,2833,.74334E-3,.8954E-4,0
LEMUR-2-VUKASIN,2025-276EA,2026-06-04T16:33:51.348096,15.00218565,.0006172,97.5301,227.0271,153.9610,206.1925,0,U,66785,999,2827,.59914E-3,.7442E-4,0
LEMUR-2-HOTSPUR-TOM,2025-276EB,2026-06-05T00:15:59.522112,14.98800296,.0015058,97.5240,227.0560,165.6469,194.5185,0,U,66786,999,2830,.704E-3,.8454E-4,0
LEMUR-2-MYRA,2025-276EC,2026-06-04T17:17:29.927328,15.00071955,.0014975,97.5221,227.0119,183.0269,177.0867,0,U,66787,999,2834,.59737E-3,.7405E-4,0
LEMUR-2 FIKRETDENGIZ,2026-004A,2026-06-03T13:16:36.378048,14.88221873,.00088388,97.8015,153.3224,173.3369,186.7966,0,U,67363,999,2125,.51674204E-3,.4718E-4,0
TWILIGHT-1 OBJECT B,2026-004B,2026-06-04T23:37:56.129088,14.87659026,.0009071,97.8059,154.7515,160.2127,199.9443,0,U,67364,999,2147,.23174E-3,.2056E-4,0
LEMUR-2-MARIO-SOUSA,2026-004C,2026-06-04T05:03:30.778560,14.88405946,.00084766,97.7991,153.9664,171.6156,188.5204,0,U,67365,999,2136,.6120998E-3,.5625E-4,0
LEMUR-2-SONNENBLUME,2026-004E,2026-06-04T00:08:29.620896,14.88244849,.00079884,97.7983,153.7541,174.6572,185.4731,0,U,67367,999,2133,.37967621E-3,.3453E-4,0
LEMUR-2-WOBLER,2026-004F,2026-06-04T00:01:31.838880,14.88419567,.00085297,97.8037,153.8581,163.6845,196.4648,0,U,67368,999,2133,.50648378E-3,.4646E-4,0
LEMUR-2-GRAM-E-SUE,2026-004H,2026-06-04T23:59:47.211936,14.88415856,.000713,97.7972,154.7462,171.5895,188.5442,0,U,67370,999,2148,.36298E-3,.3313E-4,0
LEMUR-2-KATIE,2026-004AA,2026-06-04T23:59:52.948032,14.89957742,.0004502,97.8036,155.1663,117.8952,242.2722,0,U,67387,999,2149,.57622E-3,.5498E-4,0
LEMUR-2-HCS-BAZUS,2026-004AB,2026-06-04T23:58:34.954752,14.89950611,.0004204,97.8020,155.1480,114.2020,245.9637,0,U,67388,999,2149,.63793E-3,.6092E-4,0
